STARLINK-31507          
1 59401U 24064D   26067.29226240  .00002143  00000+0  87353-4 0  9992
2 59401  43.0025  63.9239 0001145 276.0701  84.0020 15.27589170108953
FLOCK 4G-3              
1 62639U 25009AG  26068.80174065  .00011494  00000+0  43389-3 0  9993
2 62639  97.4062 151.4068 0001320 293.2042  66.9058 15.27179310 63727
